STARLINK-31184          
1 58793U 24012G   26068.59151529 -.00004722  00000+0 -16209-3 0  9997
2 58793  43.0008 165.5727 0001129 192.4014 167.6810 15.27595186121222
FLOCK 4G-5              
1 62663U 25009BG  26068.45638436  .00011278  00000+0  40688-3 0  9997
2 62663  97.4058 151.2478 0002094 314.5072  45.5996 15.28679529 63699
